      2.10          N: GNSS NAV DATA                        RINEX VERSION / TYPE
fic2rin                                 10/09/2021 00:17:33 PGM / RUN BY / DATE
                                                            END OF HEADER
12 21 10  8  1 59 44.0-1.083631068468e-04-5.456968210638e-12 0.000000000000e+00
    8.000000000000e+00 7.331250000000e+01 4.686980945855e-09 2.329553457286e+00
    3.568828105927e-06 8.264993899502e-03 2.525746822357e-06 5.153667821884e+03
    4.391840000000e+05-4.656612873077e-08-1.568026750768e+00-1.341104507446e-07
    9.715982258460e-01 3.326562500000e+02 1.228998835980e+00-8.331775623326e-09
    2.317953694933e-10 1.000000000000e+00 2.178000000000e+03 0.000000000000e+00
    2.400000000000e+00 0.000000000000e+00-1.257285475731e-08 8.000000000000e+00
    4.339500000000e+05 4.000000000000e+00
 6 21 10  8  1 59 44.0 8.991081267595e-05 8.071765478235e-12 0.000000000000e+00
    0.000000000000e+00-2.881250000000e+01 3.640151626926e-09-2.252266787106e+00
   -1.516193151474e-06 2.235913183540e-03 1.425296068192e-05 5.153595252991e+03
    4.391840000000e+05 3.725290298462e-08 4.575041011793e-01 7.450580596924e-08
    9.853734472278e-01 1.183437500000e+02-1.028875266385e+00-7.538528295677e-09
    2.350097891010e-10 1.000000000000e+00 2.178000000000e+03 0.000000000000e+00
    2.400000000000e+00 0.000000000000e+00 3.725290298462e-09 0.000000000000e+00
    4.344600000000e+05 4.000000000000e+00
 4 21 10  8  2 59 44.0-2.038818784058e-04 3.410605131648e-13 0.000000000000e+00
    8.300000000000e+01-5.800000000000e+01 4.630192866118e-09-2.844698903642e-01
   -3.013759851456e-06 1.425659982488e-03 8.406117558479e-06 5.153687170029e+03
    4.427840000000e+05 1.676380634308e-08 2.583396019511e+00 4.284083843231e-08
    9.609204423763e-01 2.157500000000e+02-3.094225894106e+00-8.144982128342e-09
   -5.428797559780e-10 1.000000000000e+00 2.178000000000e+03 0.000000000000e+00
    2.400000000000e+00 0.000000000000e+00-4.190951585770e-09 8.510000000000e+02
    4.356000000000e+05 4.000000000000e+00
23 21 10  8  3 29 36.0 4.784576594830e-05-4.661160346586e-12 0.000000000000e+00
    2.340000000000e+02 4.578125000000e+01 4.691981154134e-09-2.282639696237e+00
    2.488493919373e-06 1.769672497176e-03 6.176531314850e-06 5.153668273926e+03
    4.445760000000e+05-1.303851604462e-08 1.474961863956e+00-1.862645149231e-08
    9.653487363640e-01 2.630625000000e+02 2.717431628506e+00-8.187841056445e-09
    5.135928217740e-10 1.000000000000e+00 2.178000000000e+03 0.000000000000e+00
    2.400000000000e+00 0.000000000000e+00-8.381903171539e-09 1.002000000000e+03
    4.374000000000e+05 4.000000000000e+00
 6 21 10  8  3 59 44.0 8.996855467558e-05 8.071765478235e-12 0.000000000000e+00
    1.000000000000e+01-1.912500000000e+01 3.641580257863e-09-1.201496417891e+00
   -1.022592186928e-06 2.236069180071e-03 1.410767436028e-05 5.153597478867e+03
    4.463840000000e+05-2.607703208923e-08 4.574494465599e-01 4.470348358154e-08
    9.853749057572e-01 1.209375000000e+02-1.029423237461e+00-7.599245110490e-09
    2.442958901901e-10 1.000000000000e+00 2.178000000000e+03 0.000000000000e+00
    2.400000000000e+00 0.000000000000e+00 3.725290298462e-09 1.000000000000e+01
    4.392000000000e+05 4.000000000000e+00
12 21 10  8  3 59 44.0-1.084026880562e-04-5.456968210638e-12 0.000000000000e+00
    2.200000000000e+01 7.856250000000e+01 4.790199531038e-09-2.903512309525e+00
    4.054978489876e-06 8.264662115835e-03 2.384185791016e-06 5.153668703079e+03
    4.463840000000e+05 1.601874828339e-07-1.568087867097e+00-1.303851604462e-07
    9.715999945140e-01 3.377187500000e+02 1.229064959878e+00-8.429994000230e-09
    3.693010971588e-10 1.000000000000e+00 2.178000000000e+03 0.000000000000e+00
    2.400000000000e+00 0.000000000000e+00-1.257285475731e-08 2.200000000000e+01
    4.392000000000e+05 4.000000000000e+00
 3 21 10  8  4  0  0.0-3.169360570610e-04-1.398348103976e-11 0.000000000000e+00
    1.700000000000e+01 4.531250000000e+01 4.626978446510e-09-2.711495697960e+00
    2.466142177582e-06 3.884623525664e-03 5.241483449936e-06 5.153749773026e+03
    4.464000000000e+05-5.587935447693e-09 1.501975111498e+00 1.490116119385e-08
    9.704666031208e-01 2.835937500000e+02 9.959708652928e-01-8.151053809823e-09
    4.143029716675e-10 1.000000000000e+00 2.178000000000e+03 0.000000000000e+00
    2.400000000000e+00 0.000000000000e+00 1.862645149231e-09 1.700000000000e+01
    4.392000000000e+05 4.000000000000e+00
 2 21 10  8  4  0  0.0-6.363545544446e-04-1.932676241267e-12 0.000000000000e+00
    8.800000000000e+01-3.643750000000e+01 4.214104105780e-09-1.316843197222e+00
   -1.780688762665e-06 2.031656610779e-02 1.418590545654e-05 5.153777318954e+03
    4.464000000000e+05-2.849847078323e-07 3.791891093084e-01 4.209578037262e-07
    9.644807870675e-01 1.121875000000e+02-1.489152470686e+00-8.021762710044e-09
    1.028614274485e-10 1.000000000000e+00 2.178000000000e+03 0.000000000000e+00
    2.400000000000e+00 0.000000000000e+00-1.769512891769e-08 8.800000000000e+01
    4.392000000000e+05 4.000000000000e+00
 1 21 10  8  4  0  0.0 5.455673672259e-04-1.080024958355e-11 0.000000000000e+00
    8.100000000000e+01-9.312500000000e+00 3.648366254813e-09-1.564843209887e+00
   -5.681067705154e-07 1.105873135384e-02 1.340359449387e-05 5.153677919388e+03
    4.464000000000e+05 2.644956111908e-07 4.657020922129e-01-4.656612873077e-08
    9.859549322947e-01 1.350312500000e+02 8.888015171450e-01-7.438881287836e-09
    1.967939115420e-10 1.000000000000e+00 2.178000000000e+03 0.000000000000e+00
    2.400000000000e+00 0.000000000000e+00 5.122274160385e-09 8.100000000000e+01
    4.392000000000e+05 4.000000000000e+00
 5 21 10  8  4  0  0.0-5.693687126040e-05-1.250555214938e-12 0.000000000000e+00
    4.100000000000e+01 4.228125000000e+01 4.981278918833e-09 1.049512471790e+00
    2.309679985046e-06 6.066007888876e-03 6.075948476791e-06 5.153587682724e+03
    4.464000000000e+05-5.774199962616e-08 1.463315040625e+00-4.656612873077e-08
    9.574569311586e-01 2.650000000000e+02 1.005863186102e+00-8.408207378444e-09
    4.050168705784e-10 1.000000000000e+00 2.178000000000e+03 0.000000000000e+00
    2.400000000000e+00 0.000000000000e+00-1.117587089539e-08 4.100000000000e+01
    4.392000000000e+05 4.000000000000e+00
13 21 10  8  4  0  0.0 1.964331604540e-04 5.456968210638e-12 0.000000000000e+00
    2.100000000000e+01-4.818750000000e+01 4.453042629957e-09 1.199874919492e-01
   -2.535060048103e-06 5.549521069042e-03 9.205192327499e-06 5.153680213928e+03
    4.464000000000e+05 7.450580596924e-09 2.682203630742e+00 9.685754776001e-08
    9.685652192348e-01 2.074687500000e+02 9.693996677072e-01-8.078193632047e-09
   -6.225259307038e-10 1.000000000000e+00 2.178000000000e+03 0.000000000000e+00
    2.400000000000e+00 0.000000000000e+00-1.117587089539e-08 2.100000000000e+01
    4.392000000000e+05 4.000000000000e+00
29 21 10  8  4  0  0.0-4.230444319546e-04-5.570655048359e-12 0.000000000000e+00
    3.000000000000e+00-1.218750000000e+02 4.167316442600e-09 6.842866595375e-01
   -6.489455699921e-06 1.911434810609e-03 5.969777703285e-06 5.153571132660e+03
    4.464000000000e+05 3.539025783539e-08-5.182022034418e-01 7.450580596924e-09
    9.830936020460e-01 2.755312500000e+02 2.363689480332e+00-8.116409509606e-09
   -5.550231189407e-10 1.000000000000e+00 2.178000000000e+03 0.000000000000e+00
    2.400000000000e+00 0.000000000000e+00-1.024454832077e-08 3.000000000000e+00
    4.392000000000e+05 4.000000000000e+00
26 21 10  8  4  0  0.0 1.425473019481e-04 4.092726157978e-12 0.000000000000e+00
    1.600000000000e+01 9.881250000000e+01 5.413439777210e-09 2.551900512397e+00
    5.193054676056e-06 6.222120253369e-03 3.183260560036e-06 5.153634866714e+03
    4.464000000000e+05-1.974403858185e-07-1.687886260792e+00-2.607703208923e-08
    9.399280082772e-01 3.068125000000e+02 2.949367064177e-01-8.677861467762e-09
    4.128743407307e-10 1.000000000000e+00 2.178000000000e+03 0.000000000000e+00
    2.400000000000e+00 0.000000000000e+00 6.984919309616e-09 1.600000000000e+01
    4.392000000000e+05 4.000000000000e+00
25 21 10  8  4  0  0.0 2.208701334894e-04 6.139089236967e-12 0.000000000000e+00
    8.000000000000e+00 9.696875000000e+01 4.935919886590e-09-3.059872064502e+00
    4.859641194344e-06 9.866823093034e-03 3.080815076828e-06 5.153771251678e+03
    4.464000000000e+05 2.607703208923e-08-1.643286752758e+00-2.514570951462e-07
    9.590199991467e-01 3.172500000000e+02 9.626975513715e-01-8.460709565371e-09
    3.928735076157e-10 1.000000000000e+00 2.178000000000e+03 0.000000000000e+00
    2.400000000000e+00 0.000000000000e+00 5.587935447693e-09 8.000000000000e+00
    4.392000000000e+05 4.000000000000e+00
16 21 10  8  4  0  0.0-4.034270532429e-04-6.366462912410e-12 0.000000000000e+00
    6.700000000000e+01 6.515625000000e+01 4.823415200318e-09 1.540025243547e+00
    3.479421138763e-06 1.228109165095e-02 2.691522240639e-06 5.153768894196e+03
    4.464000000000e+05-2.291053533554e-07-1.549388735563e+00 2.309679985046e-07
    9.716052580932e-01 3.360312500000e+02 6.799711872550e-01-8.612858760139e-09
    2.075086435679e-10 1.000000000000e+00 2.178000000000e+03 0.000000000000e+00
    2.400000000000e+00 0.000000000000e+00-1.024454832077e-08 6.700000000000e+01
    4.392000000000e+05 4.000000000000e+00
 8 21 10  8  4  0  0.0-3.929575905204e-05-1.364242052659e-12 0.000000000000e+00
    9.100000000000e+01-1.058437500000e+02 4.631978654789e-09 7.669229856036e-01
   -5.483627319336e-06 6.573196034878e-03 4.976987838745e-06 5.153665401459e+03
    4.464000000000e+05 4.842877388000e-08-6.108685021308e-01-1.862645149231e-09
    9.661267191244e-01 2.819687500000e+02 5.551823557450e-02-8.400349908292e-09
   -5.560945921433e-10 1.000000000000e+00 2.178000000000e+03 0.000000000000e+00
    3.400000000000e+00 0.000000000000e+00 5.122274160385e-09 9.100000000000e+01
    4.392000000000e+05 4.000000000000e+00
